METEOSAT-5 (MOP-2)      
1 21140U 91015B   08236.03362276  .00000021  00000-0  10000-3 0  4455
2 21140  10.2541  52.2275 0005996 124.0309 236.1299  0.98449755 66144
METEOSAT-6 (MOP-3)      
1 22912U 93073B   08236.88298816 -.00000029  00000-0  10000-3 0  6563
2 22912   7.6613  63.3497 0000713 133.3258 161.3892  1.00277780 52480
HIMAWARI-5 (GMS-5)      
1 23522U 95011B   08234.73169533 -.00000020  00000-0  10000-3 0  8978
2 23522   6.7930  66.3602 0005329 330.8327  29.3114  0.99408284 48960
GOES 10                 
1 24786U 97019A   08233.94380534 -.00000281  00000-0  10000-3 0  5267
2 24786   2.8745  78.4802 0004193 112.2335  58.2722  1.00258137 41499
ORBVIEW 2 (SEASTAR)     
1 24883U 97037A   08237.24907004  .00000019  00000-0  13773-4 0  4469
2 24883  98.3122 353.8687 0002484  62.4083 297.7359 14.59952041589119
METEOSAT-7              
1 24932U 97049B   08232.02782785  .00000066  00000-0  10000-3 0  4185
2 24932   4.4455  73.2997 0000586 121.7181 200.4388  1.00280923 40151
NOAA 15                 
1 25338U 98030A   08237.33950001  .00000010  00000-0  22871-4 0  5960
2 25338  98.5601 227.4811 0010123 197.6683 162.4129 14.24721503534505
GOES 11                 
1 26352U 00022A   08237.11607315  .00000084  00000-0  10000-3 0  9453
2 26352   0.3156 262.6926 0005156 305.1570  31.6092  1.00262857 30427
FENGYUN 2B              
1 26382U 00032A   08236.36327547 -.00000220  00000-0  10000-3 0   824
2 26382   3.5896  76.2505 0006378 157.5602 202.7076  1.00102744 29889
NOAA 16                 
1 26536U 00055A   08237.28064090 -.00000305  00000-0 -14008-3 0   707
2 26536  99.1628 227.9658 0011232  38.5084 321.6891 14.12492876408382
GOES 12                 
1 26871U 01031A   08235.50000000 -.00000246  00000-0  10000-3 0  6918
2 26871   0.1720  95.3500 0000654 247.3160  92.9200  1.00265035 26019
FENGYUN 1D              
1 27431U 02024B   08237.44513815 -.00000274  00000-0 -13319-3 0  2231
2 27431  98.6080 233.9098 0015292 172.9905 187.1502 14.09271196323019
NOAA 17                 
1 27453U 02032A   08237.42036616  .00000227  00000-0  11757-3 0   644
2 27453  98.5283 300.0536 0010648 269.0365  90.9607 14.23997924320517
METEOSAT-8 (MSG-1)      
1 27509U 02040B   08236.03197106  .00000061  00000-0  00000+0 0  8923
2 27509   0.6639  41.1192 0000682 183.6629 127.7468  1.00267576 22001
KALPANA-1 (METSAT 1)    
1 27525U 02043A   08237.74075361 -.00000086  00000-0  10000-3 0  5404
2 27525   0.0310 261.6216 0007060 204.0565 208.3760  1.00272337 21820
INSAT-3A                
1 27714U 03013A   08234.70480212 -.00000255  00000-0  10000-3 0  2269
2 27714   0.0811 263.3990 0002704 266.8180 147.3351  1.00267479 19694
FENGYUN 2C              
1 28451U 04042A   08237.59218198 -.00000334  00000-0  00000+0 0  1243
2 28451   0.6483  78.2043 0001232  77.2419 135.1372  1.00260894 14079
HIMAWARI 6 (MTSAT-1R)   
1 28622U 05006A   08235.51946802 -.00000280  00000-0  10000-3 0  7582
2 28622   0.0187   7.2690 0001302 338.4422 312.5206  1.00269106 12753
NOAA 18                 
1 28654U 05018A   08237.47345222  .00000151  00000-0  10808-3 0  5520
2 28654  98.8694 177.5717 0015197 118.7685 241.5026 14.11186471168105
METEOSAT-9 (MSG-2)      
1 28912U 05049B   08238.08354497 -.00000009  00000-0  10000-3 0  4035
2 28912   0.3842 218.9055 0000777 294.6683 210.5054  1.00280144  9882
MTSAT-2                 
1 28937U 06004A   08232.15865847 -.00000241  00000-0  10000-3 0  4489
2 28937   0.0670 269.6213 0002028 207.8494  52.4912  1.00269944  9208
FORMOSAT 3A             
1 29047U 06011A   08237.22101968 -.00000002  00000-0  15927-4 0  7516
2 29047  71.9806 265.6541 0053273 294.2010  65.3519 14.27068533125367
FORMOSAT 3B             
1 29048U 06011B   08237.81509792  .00000389  00000-0  17471-3 0  7869
2 29048  71.9699 180.2544 0046609 244.3830 115.2462 14.27054303127920
FORMOSAT 3C             
1 29049U 06011C   08236.92159833  .00000361  00000-0  16364-3 0  7273
2 29049  72.0238 329.4627 0037181 309.7569  50.0277 14.27067761123570
FORMOSAT 3D             
1 29050U 06011D   08237.32783587  .00001096  00000-0  26646-3 0    70
2 29050  72.0109 174.3990 0054154 218.8741 140.8403 14.53918885128092
FORMOSAT 3E             
1 29051U 06011E   08238.00439199  .00000372  00000-0  16522-3 0  7877
2 29051  72.0053 236.7842 0070046 177.7745 182.3710 14.27066086126318
FORMOSAT 3F             
1 29052U 06011F   08237.35090860  .00000359  00000-0  16273-3 0  8052
2 29052  72.0380 299.1472 0042830 280.1205  79.5036 14.27079167124527
GOES 13                 
1 29155U 06018A   08237.48388616 -.00000095  00000-0  10000-3 0  4748
2 29155   0.3341  85.7794 0001116 110.7575 205.4204  1.00278054  8282
METOP-A                 
1 29499U 06044A   08237.77529342  .00000063  00000-0  48704-4 0  5808
2 29499  98.7163 296.0208 0001009  95.1856 264.9425 14.21484440 95907
FENGYUN 2D              
1 29640U 06053A   08237.67324066 -.00000205  00000-0  10000-3 0  4558
2 29640   1.0296 260.1063 0001329 334.2529  67.9407  1.00266062  6330
FENGYUN 3A              
1 32958U 08026A   08238.16728303  .00000167  00000-0  10000-3 0   892
2 32958  98.8073 305.9348 0000424  94.6384 265.4804 14.19568758 12781
